[{"OBJECT_NAME":"STARLINK-30569","OBJECT_ID":"2023-158T","EPOCH":"2026-03-09T22:00:01.999584","MEAN_MOTION":15.15005129,"ECCENTRICITY":0.00022494,"INCLINATION":42.9997,"RA_OF_ASC_NODE":28.3107,"ARG_OF_PERICENTER":271.6745,"MEAN_ANOMALY":126.7361,"EPHEMERIS_TYPE":0,"CLASSIFICATION_TYPE":"U","NORAD_CAT_ID":58068,"ELEMENT_SET_NO":999,"REV_AT_EPOCH":558,"BSTAR":0.0041706163,"MEAN_MOTION_DOT":0.00079957,"MEAN_MOTION_DDOT":0},{"OBJECT_NAME":"NUSAT-47","OBJECT_ID":"2025-276CF","EPOCH":"2026-03-09T17:45:49.486176","MEAN_MOTION":15.1906801,"ECCENTRICITY":0.00020185,"INCLINATION":97.4263,"RA_OF_ASC_NODE":144.0024,"ARG_OF_PERICENTER":39.1504,"MEAN_ANOMALY":320.9877,"EPHEMERIS_TYPE":0,"CLASSIFICATION_TYPE":"U","NORAD_CAT_ID":66743,"ELEMENT_SET_NO":999,"REV_AT_EPOCH":1532,"BSTAR":0.00039116013,"MEAN_MOTION_DOT":8.137e-5,"MEAN_MOTION_DDOT":0}]
